STARLINK-35355          
1 66448U 25259AC  25340.69414975  .00134490  00000+0  22573-2 0  9991
2 66448  43.0003  82.5800 0001096 298.3309  61.7440 15.50601371  5234
STARLINK-34720          
1 66449U 25259AD  25340.69380478  .00143901  00000+0  24109-2 0  9996
2 66449  43.0002  82.5763 0001577 274.1067  85.9613 15.50613009  5128
STARLINK-35334          
1 66450U 25259AE  25340.62904287  .00128150  00000+0  21499-2 0  9999
2 66450  43.0010  82.9491 0001663 265.9718  94.0952 15.50640512  5225
VIASAT-3 F2             
1 66454U 25261A   25338.91106556 -.00000061  00000+0  00000+0 0  9991
2 66454   5.5696 293.0418 2339673 184.3884 199.1368  2.28030055   477
ATLAS 5 CENTAUR R/B     
1 66455U 25261B   25340.87620802 -.00000073  00000+0  00000+0 0  9998
2 66455   6.1533 292.2027 2329560 185.3056   6.4765  2.28259386   514
STARLINK-35643          
1 66456U 25262A   25341.00002315 -.02084828  00000+0 -46119-1 0  9995
2 66456  43.0007 104.7136 0001459 273.5229  30.8563 15.46549451  4715
STARLINK-35466          
1 66457U 25262B   25341.00002315 -.02119083  00000+0 -42736-1 0  9999
2 66457  43.0009 104.6895 0001434 266.5975  47.4106 15.49231002  4712
STARLINK-35684          
1 66458U 25262C   25341.00002315 -.02124579  00000+0 -44924-1 0  9997
2 66458  43.0008 104.6994 0001397 266.5163  43.3797 15.47905282  4716
STARLINK-35449          
1 66459U 25262D   25341.00002315 -.02114418  00000+0 -40643-1 0  9993
2 66459  43.0007 104.6823 0001344 271.0347  45.6491 15.50565623  4715
STARLINK-35424          
1 66460U 25262E   25341.00002315 -.00809572  00000+0 -14893-1 0  9993
2 66460  43.0008 104.6774 0001797 269.7027  48.8655 15.50866995  4717
STARLINK-35132          
1 66461U 25262F   25341.00002315 -.00024711  00000+0 -41653-3 0  9994
2 66461  43.0006 104.6720 0001325 264.3945  56.1479 15.50591265  4715
STARLINK-35499          
1 66462U 25262G   25341.00002315 -.00136527  00000+0 -23575-2 0  9996
2 66462  43.0009 104.6674 0001491 263.1440  59.3069 15.50633867  4713
