CCSDS_OMM_VERS = 2.0
CREATION_DATE  = 
ORIGINATOR     = 

OBJECT_NAME    = STARLINK-35355
OBJECT_ID      = 2025-259AC
CENTER_NAME    = EARTH
REF_FRAME      = TEME
TIME_SYSTEM    = UTC
MEAN_ELEMENT_THEORY = SGP/SGP4

EPOCH          = 2025-12-06T16:39:34.538400
MEAN_MOTION    = 15.50601371
ECCENTRICITY   = .00010967
INCLINATION    = 43.0003
RA_OF_ASC_NODE = 82.5800
ARG_OF_PERICENTER = 298.3309
MEAN_ANOMALY   = 61.7440

EPHEMERIS_TYPE = 0
CLASSIFICATION_TYPE = U
NORAD_CAT_ID   = 66448
ELEMENT_SET_NO = 999
REV_AT_EPOCH   = 523
BSTAR          = .22573217E-2
MEAN_MOTION_DOT = .13449E-2
MEAN_MOTION_DDOT = 0

CCSDS_OMM_VERS = 2.0
CREATION_DATE  = 
ORIGINATOR     = 

OBJECT_NAME    = STARLINK-34720
OBJECT_ID      = 2025-259AD
CENTER_NAME    = EARTH
REF_FRAME      = TEME
TIME_SYSTEM    = UTC
MEAN_ELEMENT_THEORY = SGP/SGP4

EPOCH          = 2025-12-06T16:39:04.732992
MEAN_MOTION    = 15.50613009
ECCENTRICITY   = .00015775
INCLINATION    = 43.0002
RA_OF_ASC_NODE = 82.5763
ARG_OF_PERICENTER = 274.1067
MEAN_ANOMALY   = 85.9613

EPHEMERIS_TYPE = 0
CLASSIFICATION_TYPE = U
NORAD_CAT_ID   = 66449
ELEMENT_SET_NO = 999
REV_AT_EPOCH   = 512
BSTAR          = .24109474E-2
MEAN_MOTION_DOT = .143901E-2
MEAN_MOTION_DDOT = 0

CCSDS_OMM_VERS = 2.0
CREATION_DATE  = 
ORIGINATOR     = 

OBJECT_NAME    = STARLINK-35334
OBJECT_ID      = 2025-259AE
CENTER_NAME    = EARTH
REF_FRAME      = TEME
TIME_SYSTEM    = UTC
MEAN_ELEMENT_THEORY = SGP/SGP4

EPOCH          = 2025-12-06T15:05:49.303968
MEAN_MOTION    = 15.50640512
ECCENTRICITY   = .00016631
INCLINATION    = 43.0010
RA_OF_ASC_NODE = 82.9491
ARG_OF_PERICENTER = 265.9718
MEAN_ANOMALY   = 94.0952

EPHEMERIS_TYPE = 0
CLASSIFICATION_TYPE = U
NORAD_CAT_ID   = 66450
ELEMENT_SET_NO = 999
REV_AT_EPOCH   = 522
BSTAR          = .21499199E-2
MEAN_MOTION_DOT = .12815E-2
MEAN_MOTION_DDOT = 0

CCSDS_OMM_VERS = 2.0
CREATION_DATE  = 
ORIGINATOR     = 

OBJECT_NAME    = VIASAT-3 F2
OBJECT_ID      = 2025-261A
CENTER_NAME    = EARTH
REF_FRAME      = TEME
TIME_SYSTEM    = UTC
MEAN_ELEMENT_THEORY = SGP/SGP4

EPOCH          = 2025-12-04T21:51:56.064384
MEAN_MOTION    = 2.28030055
ECCENTRICITY   = .23396731
INCLINATION    = 5.5696
RA_OF_ASC_NODE = 293.0418
ARG_OF_PERICENTER = 184.3884
MEAN_ANOMALY   = 199.1368

EPHEMERIS_TYPE = 0
CLASSIFICATION_TYPE = U
NORAD_CAT_ID   = 66454
ELEMENT_SET_NO = 999
REV_AT_EPOCH   = 47
BSTAR          = 0
MEAN_MOTION_DOT = -.61E-6
MEAN_MOTION_DDOT = 0

CCSDS_OMM_VERS = 2.0
CREATION_DATE  = 
ORIGINATOR     = 

OBJECT_NAME    = ATLAS 5 CENTAUR R/B
OBJECT_ID      = 2025-261B
CENTER_NAME    = EARTH
REF_FRAME      = TEME
TIME_SYSTEM    = UTC
MEAN_ELEMENT_THEORY = SGP/SGP4

EPOCH          = 2025-12-06T21:01:44.372928
MEAN_MOTION    = 2.28259386
ECCENTRICITY   = .23295607
INCLINATION    = 6.1533
RA_OF_ASC_NODE = 292.2027
ARG_OF_PERICENTER = 185.3056
MEAN_ANOMALY   = 6.4765

EPHEMERIS_TYPE = 0
CLASSIFICATION_TYPE = U
NORAD_CAT_ID   = 66455
ELEMENT_SET_NO = 999
REV_AT_EPOCH   = 51
BSTAR          = 0
MEAN_MOTION_DOT = -.73E-6
MEAN_MOTION_DDOT = 0

CCSDS_OMM_VERS = 2.0
CREATION_DATE  = 
ORIGINATOR     = 

OBJECT_NAME    = STARLINK-35643
OBJECT_ID      = 2025-262A
CENTER_NAME    = EARTH
REF_FRAME      = TEME
TIME_SYSTEM    = UTC
MEAN_ELEMENT_THEORY = SGP/SGP4

EPOCH          = 2025-12-07T00:00:02.000160
MEAN_MOTION    = 15.46549451
ECCENTRICITY   = .00014594
INCLINATION    = 43.0007
RA_OF_ASC_NODE = 104.7136
ARG_OF_PERICENTER = 273.5229
MEAN_ANOMALY   = 30.8563

EPHEMERIS_TYPE = 0
CLASSIFICATION_TYPE = U
NORAD_CAT_ID   = 66456
ELEMENT_SET_NO = 999
REV_AT_EPOCH   = 471
BSTAR          = -.46118595E-1
MEAN_MOTION_DOT = -.2084828E-1
MEAN_MOTION_DDOT = 0

CCSDS_OMM_VERS = 2.0
CREATION_DATE  = 
ORIGINATOR     = 

OBJECT_NAME    = STARLINK-35466
OBJECT_ID      = 2025-262B
CENTER_NAME    = EARTH
REF_FRAME      = TEME
TIME_SYSTEM    = UTC
MEAN_ELEMENT_THEORY = SGP/SGP4

EPOCH          = 2025-12-07T00:00:02.000160
MEAN_MOTION    = 15.49231002
ECCENTRICITY   = .00014343
INCLINATION    = 43.0009
RA_OF_ASC_NODE = 104.6895
ARG_OF_PERICENTER = 266.5975
MEAN_ANOMALY   = 47.4106

EPHEMERIS_TYPE = 0
CLASSIFICATION_TYPE = U
NORAD_CAT_ID   = 66457
ELEMENT_SET_NO = 999
REV_AT_EPOCH   = 471
BSTAR          = -.42736151E-1
MEAN_MOTION_DOT = -.2119083E-1
MEAN_MOTION_DDOT = 0

CCSDS_OMM_VERS = 2.0
CREATION_DATE  = 
ORIGINATOR     = 

OBJECT_NAME    = STARLINK-35684
OBJECT_ID      = 2025-262C
CENTER_NAME    = EARTH
REF_FRAME      = TEME
TIME_SYSTEM    = UTC
MEAN_ELEMENT_THEORY = SGP/SGP4

EPOCH          = 2025-12-07T00:00:02.000160
MEAN_MOTION    = 15.47905282
ECCENTRICITY   = .0001397
INCLINATION    = 43.0008
RA_OF_ASC_NODE = 104.6994
ARG_OF_PERICENTER = 266.5163
MEAN_ANOMALY   = 43.3797

EPHEMERIS_TYPE = 0
CLASSIFICATION_TYPE = U
NORAD_CAT_ID   = 66458
ELEMENT_SET_NO = 999
REV_AT_EPOCH   = 471
BSTAR          = -.4492357E-1
MEAN_MOTION_DOT = -.2124579E-1
MEAN_MOTION_DDOT = 0

CCSDS_OMM_VERS = 2.0
CREATION_DATE  = 
ORIGINATOR     = 

OBJECT_NAME    = STARLINK-35449
OBJECT_ID      = 2025-262D
CENTER_NAME    = EARTH
REF_FRAME      = TEME
TIME_SYSTEM    = UTC
MEAN_ELEMENT_THEORY = SGP/SGP4

EPOCH          = 2025-12-07T00:00:02.000160
MEAN_MOTION    = 15.50565623
ECCENTRICITY   = .00013446
INCLINATION    = 43.0007
RA_OF_ASC_NODE = 104.6823
ARG_OF_PERICENTER = 271.0347
MEAN_ANOMALY   = 45.6491

EPHEMERIS_TYPE = 0
CLASSIFICATION_TYPE = U
NORAD_CAT_ID   = 66459
ELEMENT_SET_NO = 999
REV_AT_EPOCH   = 471
BSTAR          = -.40643282E-1
MEAN_MOTION_DOT = -.2114418E-1
MEAN_MOTION_DDOT = 0

CCSDS_OMM_VERS = 2.0
CREATION_DATE  = 
ORIGINATOR     = 

OBJECT_NAME    = STARLINK-35424
OBJECT_ID      = 2025-262E
CENTER_NAME    = EARTH
REF_FRAME      = TEME
TIME_SYSTEM    = UTC
MEAN_ELEMENT_THEORY = SGP/SGP4

EPOCH          = 2025-12-07T00:00:02.000160
MEAN_MOTION    = 15.50866995
ECCENTRICITY   = .00017979
INCLINATION    = 43.0008
RA_OF_ASC_NODE = 104.6774
ARG_OF_PERICENTER = 269.7027
MEAN_ANOMALY   = 48.8655

EPHEMERIS_TYPE = 0
CLASSIFICATION_TYPE = U
NORAD_CAT_ID   = 66460
ELEMENT_SET_NO = 999
REV_AT_EPOCH   = 471
BSTAR          = -.14893441E-1
MEAN_MOTION_DOT = -.809572E-2
MEAN_MOTION_DDOT = 0

CCSDS_OMM_VERS = 2.0
CREATION_DATE  = 
ORIGINATOR     = 

OBJECT_NAME    = STARLINK-35132
OBJECT_ID      = 2025-262F
CENTER_NAME    = EARTH
REF_FRAME      = TEME
TIME_SYSTEM    = UTC
MEAN_ELEMENT_THEORY = SGP/SGP4

EPOCH          = 2025-12-07T00:00:02.000160
MEAN_MOTION    = 15.50591265
ECCENTRICITY   = .00013255
INCLINATION    = 43.0006
RA_OF_ASC_NODE = 104.6720
ARG_OF_PERICENTER = 264.3945
MEAN_ANOMALY   = 56.1479

EPHEMERIS_TYPE = 0
CLASSIFICATION_TYPE = U
NORAD_CAT_ID   = 66461
ELEMENT_SET_NO = 999
REV_AT_EPOCH   = 471
BSTAR          = -.4165329E-3
MEAN_MOTION_DOT = -.24711E-3
MEAN_MOTION_DDOT = 0

CCSDS_OMM_VERS = 2.0
CREATION_DATE  = 
ORIGINATOR     = 

OBJECT_NAME    = STARLINK-35499
OBJECT_ID      = 2025-262G
CENTER_NAME    = EARTH
REF_FRAME      = TEME
TIME_SYSTEM    = UTC
MEAN_ELEMENT_THEORY = SGP/SGP4

EPOCH          = 2025-12-07T00:00:02.000160
MEAN_MOTION    = 15.50633867
ECCENTRICITY   = .00014914
INCLINATION    = 43.0009
RA_OF_ASC_NODE = 104.6674
ARG_OF_PERICENTER = 263.1440
MEAN_ANOMALY   = 59.3069

EPHEMERIS_TYPE = 0
CLASSIFICATION_TYPE = U
NORAD_CAT_ID   = 66462
ELEMENT_SET_NO = 999
REV_AT_EPOCH   = 471
BSTAR          = -.23574789E-2
MEAN_MOTION_DOT = -.136527E-2
MEAN_MOTION_DDOT = 0

